[{"CCSDS_OMM_VERS":"2.0","COMMENT":"GENERATED VIA SPACE-TRACK.ORG API","CREATION_DATE":"2004-08-15T23:35:26","ORIGINATOR":"18 SPCS","OBJECT_NAME":"DISCOVERER 34 DEB","OBJECT_ID":"1961-029E","CENTER_NAME":"EARTH","REF_FRAME":"TEME","TIME_SYSTEM":"UTC","MEAN_ELEMENT_THEORY":"SGP4","EPOCH":"1961-11-19T04:25:33.283200","MEAN_MOTION":"15.15551979","ECCENTRICITY":"0.04258150","INCLINATION":"82.5170","RA_OF_ASC_NODE":"37.8822","ARG_OF_PERICENTER":"107.1694","MEAN_ANOMALY":"255.2181","EPHEMERIS_TYPE":"0","CLASSIFICATION_TYPE":"U","NORAD_CAT_ID":"203","ELEMENT_SET_NO":"999","REV_AT_EPOCH":"200","BSTAR":"0.00000000000000","MEAN_MOTION_DOT":"0.01258879","MEAN_MOTION_DDOT":"0.0000000000000","SEMIMAJOR_AXIS":"6897.444","PERIOD":"95.014","APOAPSIS":"813.013","PERIAPSIS":"225.606","OBJECT_TYPE":"DEBRIS","RCS_SIZE":null,"COUNTRY_CODE":null,"LAUNCH_DATE":null,"SITE":null,"DECAY_DATE":"1961-12-12","FILE":"33907","GP_ID":"8674693","TLE_LINE0":"0 DISCOVERER 34 DEB","TLE_LINE1":"1 00203U 61029  E 61323.18441300  .01258879 +00000-0 +00000-0 0  9999","TLE_LINE2":"2 00203 082.5170 037.8822 0425815 107.1694 255.2181 15.15551979002007"},{"CCSDS_OMM_VERS":"2.0","COMMENT":"GENERATED VIA SPACE-TRACK.ORG API","CREATION_DATE":"2004-08-15T23:35:26","ORIGINATOR":"18 SPCS","OBJECT_NAME":"RANGER 2","OBJECT_ID":"1961-032A","CENTER_NAME":"EARTH","REF_FRAME":"TEME","TIME_SYSTEM":"UTC","MEAN_ELEMENT_THEORY":"SGP4","EPOCH":"1961-11-19T07:13:19.927776","MEAN_MOTION":"16.42425948","ECCENTRICITY":"0.00152670","INCLINATION":"33.3419","RA_OF_ASC_NODE":"328.8753","ARG_OF_PERICENTER":"59.4155","MEAN_ANOMALY":"300.6610","EPHEMERIS_TYPE":"0","CLASSIFICATION_TYPE":"U","NORAD_CAT_ID":"206","ELEMENT_SET_NO":"999","REV_AT_EPOCH":"16","BSTAR":"0.00000000000000","MEAN_MOTION_DOT":"0.07604724","MEAN_MOTION_DDOT":"0.0000000000000","SEMIMAJOR_AXIS":"6537.498","PERIOD":"87.675","APOAPSIS":"169.344","PERIAPSIS":"149.382","OBJECT_TYPE":"PAYLOAD","RCS_SIZE":null,"COUNTRY_CODE":null,"LAUNCH_DATE":null,"SITE":null,"DECAY_DATE":"1961-11-20","FILE":"33907","GP_ID":"8674704","TLE_LINE0":"0 RANGER 2","TLE_LINE1":"1 00206U 61032  A 61323.30092509  .07604724 +00000-0 +00000-0 0  9993","TLE_LINE2":"2 00206 033.3419 328.8753 0015267 059.4155 300.6610 16.42425948000167"},{"CCSDS_OMM_VERS":"2.0","COMMENT":"GENERATED VIA SPACE-TRACK.ORG API","CREATION_DATE":"2004-08-15T23:35:26","ORIGINATOR":"18 SPCS","OBJECT_NAME":"MIDAS 4 DEB (NOSECONE)","OBJECT_ID":"1961-028B","CENTER_NAME":"EARTH","REF_FRAME":"TEME","TIME_SYSTEM":"UTC","MEAN_ELEMENT_THEORY":"SGP4","EPOCH":"1961-11-24T16:55:57.082655","MEAN_MOTION":"14.04130105","ECCENTRICITY":"0.10098230","INCLINATION":"94.7406","RA_OF_ASC_NODE":"311.5505","ARG_OF_PERICENTER":"75.4882","MEAN_ANOMALY":"290.1475","EPHEMERIS_TYPE":"0","CLASSIFICATION_TYPE":"U","NORAD_CAT_ID":"193","ELEMENT_SET_NO":"999","REV_AT_EPOCH":"439","BSTAR":"0.00000000000000","MEAN_MOTION_DOT":"0.03770584","MEAN_MOTION_DDOT":"0.0000000000000","SEMIMAJOR_AXIS":"7257.670","PERIOD":"102.554","APOAPSIS":"1612.431","PERIAPSIS":"146.638","OBJECT_TYPE":"DEBRIS","RCS_SIZE":null,"COUNTRY_CODE":null,"LAUNCH_DATE":null,"SITE":null,"DECAY_DATE":"1961-12-05","FILE":"33907","GP_ID":"8674640","TLE_LINE0":"0 MIDAS 4 DEB (NOSECONE)","TLE_LINE1":"1 00193U 61028  B 61328.70552179  .03770584 +00000-0 +00000-0 0  9990","TLE_LINE2":"2 00193 094.7406 311.5505 1009823 075.4882 290.1475 14.04130105004395"},{"CCSDS_OMM_VERS":"2.0","COMMENT":"GENERATED VIA SPACE-TRACK.ORG API","CREATION_DATE":"2004-08-15T23:35:26","ORIGINATOR":"18 SPCS","OBJECT_NAME":"DISCOVERER 34 DEB","OBJECT_ID":"1961-029B","CENTER_NAME":"EARTH","REF_FRAME":"TEME","TIME_SYSTEM":"UTC","MEAN_ELEMENT_THEORY":"SGP4","EPOCH":"1961-11-27T07:23:57.905376","MEAN_MOTION":"15.90715028","ECCENTRICITY":"0.01015910","INCLINATION":"82.4591","RA_OF_ASC_NODE":"28.3135","ARG_OF_PERICENTER":"76.0377","MEAN_ANOMALY":"284.5362","EPHEMERIS_TYPE":"0","CLASSIFICATION_TYPE":"U","NORAD_CAT_ID":"198","ELEMENT_SET_NO":"999","REV_AT_EPOCH":"330","BSTAR":"0.00000000000000","MEAN_MOTION_DOT":"0.04577469","MEAN_MOTION_DDOT":"0.0000000000000","SEMIMAJOR_AXIS":"6678.422","PERIOD":"90.525","APOAPSIS":"368.133","PERIAPSIS":"232.440","OBJECT_TYPE":"DEBRIS","RCS_SIZE":null,"COUNTRY_CODE":null,"LAUNCH_DATE":null,"SITE":null,"DECAY_DATE":"1961-11-30","FILE":"33907","GP_ID":"8674663","TLE_LINE0":"0 DISCOVERER 34 DEB","TLE_LINE1":"1 00198U 61029  B 61331.30830909  .04577469 +00000-0 +00000-0 0  9994","TLE_LINE2":"2 00198 082.4591 028.3135 0101591 076.0377 284.5362 15.90715028003302"},{"CCSDS_OMM_VERS":"2.0","COMMENT":"GENERATED VIA SPACE-TRACK.ORG API","CREATION_DATE":"2004-08-15T23:35:26","ORIGINATOR":"18 SPCS","OBJECT_NAME":"ATLAS D 5 R\/B","OBJECT_ID":"1961-033B","CENTER_NAME":"EARTH","REF_FRAME":"TEME","TIME_SYSTEM":"UTC","MEAN_ELEMENT_THEORY":"SGP4","EPOCH":"1961-11-29T20:46:51.323519","MEAN_MOTION":"16.46736067","ECCENTRICITY":"0.00262530","INCLINATION":"32.5771","RA_OF_ASC_NODE":"156.1258","ARG_OF_PERICENTER":"126.6753","MEAN_ANOMALY":"233.4475","EPHEMERIS_TYPE":"0","CLASSIFICATION_TYPE":"U","NORAD_CAT_ID":"209","ELEMENT_SET_NO":"999","REV_AT_EPOCH":"4","BSTAR":"0.00000000000000","MEAN_MOTION_DOT":"0.44467461","MEAN_MOTION_DDOT":"0.0000000000000","SEMIMAJOR_AXIS":"6526.085","PERIOD":"87.445","APOAPSIS":"165.083","PERIAPSIS":"130.817","OBJECT_TYPE":"ROCKET BODY","RCS_SIZE":null,"COUNTRY_CODE":null,"LAUNCH_DATE":null,"SITE":null,"DECAY_DATE":"1961-11-30","FILE":"33907","GP_ID":"8674706","TLE_LINE0":"0 ATLAS D 5 R\/B","TLE_LINE1":"1 00209U 61033  B 61333.86587180  .44467461 +00000-0 +00000-0 0  9999","TLE_LINE2":"2 00209 032.5771 156.1258 0026253 126.6753 233.4475 16.46736067000042"},{"CCSDS_OMM_VERS":"2.0","COMMENT":"GENERATED VIA SPACE-TRACK.ORG API","CREATION_DATE":"2004-08-15T23:35:26","ORIGINATOR":"18 SPCS","OBJECT_NAME":"DISCOVERER 35","OBJECT_ID":"1961-030A","CENTER_NAME":"EARTH","REF_FRAME":"TEME","TIME_SYSTEM":"UTC","MEAN_ELEMENT_THEORY":"SGP4","EPOCH":"1961-11-30T03:52:18.946559","MEAN_MOTION":"16.21192253","ECCENTRICITY":"0.00000000","INCLINATION":"81.6300","RA_OF_ASC_NODE":"63.4741","ARG_OF_PERICENTER":"85.8378","MEAN_ANOMALY":"274.1621","EPHEMERIS_TYPE":"0","CLASSIFICATION_TYPE":"U","NORAD_CAT_ID":"201","ELEMENT_SET_NO":"999","REV_AT_EPOCH":"230","BSTAR":"0.00000000000000","MEAN_MOTION_DOT":"0.01188294","MEAN_MOTION_DDOT":"0.0000000000000","SEMIMAJOR_AXIS":"6594.457","PERIOD":"88.823","APOAPSIS":"216.322","PERIAPSIS":"216.322","OBJECT_TYPE":"PAYLOAD","RCS_SIZE":null,"COUNTRY_CODE":null,"LAUNCH_DATE":null,"SITE":null,"DECAY_DATE":"1961-12-03","FILE":"33907","GP_ID":"8674685","TLE_LINE0":"0 DISCOVERER 35","TLE_LINE1":"1 00201U 61030  A 61334.16133040  .01188294 +00000-0 +00000-0 0  9991","TLE_LINE2":"2 00201 081.6300 063.4741 0000000 085.8378 274.1621 16.21192253002307"},{"CCSDS_OMM_VERS":"2.0","COMMENT":"GENERATED VIA SPACE-TRACK.ORG API","CREATION_DATE":"2004-08-15T23:35:26","ORIGINATOR":"18 SPCS","OBJECT_NAME":"DISCOVERER 34 DEB","OBJECT_ID":"1961-029C","CENTER_NAME":"EARTH","REF_FRAME":"TEME","TIME_SYSTEM":"UTC","MEAN_ELEMENT_THEORY":"SGP4","EPOCH":"1961-12-01T12:47:13.280639","MEAN_MOTION":"15.64471255","ECCENTRICITY":"0.01885950","INCLINATION":"82.5036","RA_OF_ASC_NODE":"25.3071","ARG_OF_PERICENTER":"60.5602","MEAN_ANOMALY":"300.3928","EPHEMERIS_TYPE":"0","CLASSIFICATION_TYPE":"U","NORAD_CAT_ID":"199","ELEMENT_SET_NO":"999","REV_AT_EPOCH":"390","BSTAR":"0.00000000000000","MEAN_MOTION_DOT":"0.02422552","MEAN_MOTION_DDOT":"0.0000000000000","SEMIMAJOR_AXIS":"6752.901","PERIOD":"92.043","APOAPSIS":"502.122","PERIAPSIS":"247.409","OBJECT_TYPE":"DEBRIS","RCS_SIZE":null,"COUNTRY_CODE":null,"LAUNCH_DATE":null,"SITE":null,"DECAY_DATE":"1961-12-09","FILE":"33907","GP_ID":"8674670","TLE_LINE0":"0 DISCOVERER 34 DEB","TLE_LINE1":"1 00199U 61029  C 61335.53279260  .02422552 +00000-0 +00000-0 0  9991","TLE_LINE2":"2 00199 082.5036 025.3071 0188595 060.5602 300.3928 15.64471255003905"},{"CCSDS_OMM_VERS":"2.0","COMMENT":"GENERATED VIA SPACE-TRACK.ORG API","CREATION_DATE":"2004-08-15T23:35:26","ORIGINATOR":"18 SPCS","OBJECT_NAME":"DISCOVERER 26","OBJECT_ID":"1961-016A","CENTER_NAME":"EARTH","REF_FRAME":"TEME","TIME_SYSTEM":"UTC","MEAN_ELEMENT_THEORY":"SGP4","EPOCH":"1961-12-02T13:29:49.986239","MEAN_MOTION":"16.18235548","ECCENTRICITY":"0.00642950","INCLINATION":"82.8851","RA_OF_ASC_NODE":"198.0580","ARG_OF_PERICENTER":"339.6908","MEAN_ANOMALY":"20.4352","EPHEMERIS_TYPE":"0","CLASSIFICATION_TYPE":"U","NORAD_CAT_ID":"160","ELEMENT_SET_NO":"999","REV_AT_EPOCH":"2290","BSTAR":"0.00000000000000","MEAN_MOTION_DOT":"0.02296891","MEAN_MOTION_DDOT":"0.0000000000000","SEMIMAJOR_AXIS":"6602.488","PERIOD":"88.985","APOAPSIS":"266.803","PERIAPSIS":"181.902","OBJECT_TYPE":"PAYLOAD","RCS_SIZE":null,"COUNTRY_CODE":null,"LAUNCH_DATE":null,"SITE":null,"DECAY_DATE":"1961-12-05","FILE":"33907","GP_ID":"8674477","TLE_LINE0":"0 DISCOVERER 26","TLE_LINE1":"1 00160U 61016  A 61336.56238410  .02296891 +00000-0 +00000-0 0  9996","TLE_LINE2":"2 00160 082.8851 198.0580 0064295 339.6908 020.4352 16.18235548022908"}]